{
  "norad_id": 53531,
  "name": "STARLINK-4487",
  "history": [
    {
      "epoch": "2026-04-11T11:47:11.331168Z",
      "apogee_km": 540.6859653038036,
      "perigee_km": 538.8292023974982,
      "latitude_deg": 1.7416941918534405e-05,
      "longitude_deg": -89.63663183598153,
      "height_km": 540.6153545953034,
      "semi_major_axis_km": 6917.894583850651,
      "eccentricity": 0.0001342,
      "inclination_deg": 53.2183,
      "raan_deg": 286.8704,
      "arg_perigee_deg": 87.6508,
      "mean_anomaly_deg": 272.4638,
      "mean_motion_rev_day": 15.08835356
    },
    {
      "epoch": "2026-04-13T05:07:13.167840Z",
      "apogee_km": 540.7044541597515,
      "perigee_km": 538.8017576650218,
      "latitude_deg": 2.7005114149517492e-05,
      "longitude_deg": 0.9274006821973694,
      "height_km": 540.6244828894436,
      "semi_major_axis_km": 6917.890105912386,
      "eccentricity": 0.00013752,
      "inclination_deg": 53.2179,
      "raan_deg": 279.1396,
      "arg_perigee_deg": 88.5329,
      "mean_anomaly_deg": 271.5821,
      "mean_motion_rev_day": 15.08836821
    },
    {
      "epoch": "2026-04-14T20:51:51.168672Z",
      "apogee_km": 540.6311039601514,
      "perigee_km": 538.8449086335249,
      "latitude_deg": -3.243260274246829e-06,
      "longitude_deg": 115.7022196396891,
      "height_km": 540.6172614842283,
      "semi_major_axis_km": 6917.8750062968375,
      "eccentricity": 0.0001291,
      "inclination_deg": 53.2174,
      "raan_deg": 271.705,
      "arg_perigee_deg": 88.9383,
      "mean_anomaly_deg": 271.1757,
      "mean_motion_rev_day": 15.08841761
    },
    {
      "epoch": "2026-04-15T17:31:52.232160Z",
      "apogee_km": 540.6889101629704,
      "perigee_km": 538.8072454218109,
      "latitude_deg": 1.3253217632510598e-05,
      "longitude_deg": 160.98244039198605,
      "height_km": 540.682912504238,
      "semi_major_axis_km": 6917.885077792391,
      "eccentricity": 0.000136,
      "inclination_deg": 53.2163,
      "raan_deg": 267.8384,
      "arg_perigee_deg": 92.3908,
      "mean_anomaly_deg": 267.724,
      "mean_motion_rev_day": 15.08838466
    },
    {
      "epoch": "2026-04-16T17:22:39.592704Z",
      "apogee_km": 540.6966877806663,
      "perigee_km": 538.809487364776,
      "latitude_deg": 5.1432960211983186e-05,
      "longitude_deg": 157.84549458282098,
      "height_km": 540.6773962415225,
      "semi_major_axis_km": 6917.890087572721,
      "eccentricity": 0.0001364,
      "inclination_deg": 53.2169,
      "raan_deg": 263.3781,
      "arg_perigee_deg": 91.7411,
      "mean_anomaly_deg": 268.3738,
      "mean_motion_rev_day": 15.08836827
    },
    {
      "epoch": "2026-04-17T15:38:03.520032Z",
      "apogee_km": 540.6302373042272,
      "perigee_km": 538.8845758296748,
      "latitude_deg": 2.670375066254271e-05,
      "longitude_deg": 178.91843227976054,
      "height_km": 540.635468476182,
      "semi_major_axis_km": 6917.894406566951,
      "eccentricity": 0.00012617,
      "inclination_deg": 53.2169,
      "raan_deg": 259.2148,
      "arg_perigee_deg": 88.8366,
      "mean_anomaly_deg": 271.2771,
      "mean_motion_rev_day": 15.08835414
    }
  ]
}